NORAD_CAT_ID,OBJECT_NAME,OBJECT_TYPE,EPOCH,MEAN_MOTION,ECCENTRICITY,INCLINATION,RA_OF_ASC_NODE,ARG_OF_PERICENTER,MEAN_ANOMALY,BSTAR,MEAN_MOTION_DOT,MEAN_MOTION_DDOT,TLE_LINE0,TLE_LINE1,TLE_LINE2,SEMIMAJOR_AXIS,PERIOD,APOGEE,PERIGEE,DECAYED
52364.0,STARLINK-3820,PAYLOAD,2023-11-19 09:20:44,15.08848925,0.0001452,53.2173,5.78,85.7428,274.373,0.00010642,1.407e-05,0.0,0 STARLINK-3820,1 52364U 22045AK  23323.38940373  .00001407  00000-0  10642-3 0  9991,2 52364  53.2173   5.7800 0001452  85.7428 274.3730 15.08848925 88911,6917.853,95.437,540.723,538.714,0.0
52364.0,STARLINK-3820,PAYLOAD,2023-11-19 20:28:26,15.08845469,0.0001443,53.2175,3.6988,85.1062,275.0095,8.3707e-05,1.045e-05,0.0,0 STARLINK-3820,1 52364U 22045AK  23323.85308400  .00001045  00000-0  83707-4 0  9993,2 52364  53.2175   3.6988 0001443  85.1062 275.0095 15.08845469 88984,6917.864,95.437,540.727,538.73,0.0
52364.0,STARLINK-3820,PAYLOAD,2023-11-20 02:49:59,15.0883967,0.000158,53.2183,2.509,90.162,269.9553,9.7961e-05,1.271e-05,0.0,0 STARLINK-3820,1 52364U 22045AK  23324.11804751  .00001271  00000-0  97961-4 0  9991,2 52364  53.2183   2.5090 0001580  90.1620 269.9553 15.08839670 89027,6917.881,95.438,540.839,538.653,0.0
52364.0,STARLINK-3820,PAYLOAD,2023-11-20 12:22:17,15.08847848,0.0001592,53.2182,0.7241,95.8279,264.2894,0.00012095,1.638e-05,0.0,0 STARLINK-3820,1 52364U 22045AK  23324.51548133  .00001638  00000-0  12095-3 0  9995,2 52364  53.2182   0.7241 0001592  95.8279 264.2894 15.08847848 89087,6917.856,95.437,540.823,538.62,0.0
52364.0,STARLINK-3820,PAYLOAD,2023-11-21 02:40:46,15.0884223,0.0001638,53.2177,358.0456,99.637,260.4807,-2.6695e-05,-7.13e-06,0.0,0 STARLINK-3820,1 52364U 22045AK  23325.11164781 -.00000713  00000-0 -26695-4 0  9992,2 52364  53.2177 358.0456 0001638  99.6370 260.4807 15.08842230 89175,6917.874,95.437,540.872,538.605,0.0
52364.0,STARLINK-3820,PAYLOAD,2023-11-21 10:37:41,15.08845701,0.0001583,53.2178,356.5608,91.1693,268.948,5.3002e-05,5.56e-06,0.0,0 STARLINK-3820,1 52364U 22045AK  23325.44284348  .00000556  00000-0  53002-4 0  9995,2 52364  53.2178 356.5608 0001583  91.1693 268.9480 15.08845701 89224,6917.863,95.437,540.823,538.633,0.0
52364.0,STARLINK-3820,PAYLOAD,2023-11-22 07:17:42,15.08844752,0.000158,53.2173,352.695,90.9618,269.1555,9.1275e-05,1.165e-05,0.0,0 STARLINK-3820,1 52364U 22045AK  23326.30396317  .00001165  00000-0  91275-4 0  9992,2 52364  53.2173 352.6950 0001580  90.9618 269.1555 15.08844752 89352,6917.866,95.437,540.824,538.638,0.0
52364.0,STARLINK-3820,PAYLOAD,2023-11-23 00:46:57,15.0883933,0.0001571,53.217,349.4242,87.9791,272.1381,0.00010004,1.304e-05,0.0,0 STARLINK-3820,1 52364U 22045AK  23327.03260704  .00001304  00000-0  10004-3 0  9998,2 52364  53.2170 349.4242 0001571  87.9791 272.1381 15.08839330 89464,6917.882,95.438,540.834,538.661,0.0
52364.0,STARLINK-3820,PAYLOAD,2023-11-23 08:43:52,15.08843468,0.0001588,53.2176,347.9377,90.6423,269.4751,9.6984e-05,1.256e-05,0.0,0 STARLINK-3820,1 52364U 22045AK  23327.36380362  .00001256  00000-0  96984-4 0  9995,2 52364  53.2176 347.9377 0001588  90.6423 269.4751 15.08843468 89516,6917.87,95.437,540.833,538.636,0.0
52364.0,STARLINK-3820,PAYLOAD,2023-11-24 00:37:44,15.08836053,0.0001897,53.219,344.9653,114.6514,245.4676,-5.5103e-05,-1.165e-05,0.0,0 STARLINK-3820,1 52364U 22045AK  23328.02621386 -.00001165  00000-0 -55103-4 0  9992,2 52364  53.2190 344.9653 0001897 114.6514 245.4676 15.08836053 89610,6917.892,95.438,541.07,538.445,0.0
52364.0,STARLINK-3820,PAYLOAD,2023-11-24 08:34:41,15.08827641,0.0001722,53.2181,343.4752,94.0404,266.0785,-2.3563e-05,-6.63e-06,0.0,0 STARLINK-3820,1 52364U 22045AK  23328.35742254 -.00000663  00000-0 -23563-4 0  9993,2 52364  53.2181 343.4752 0001722  94.0404 266.0785 15.08827641 89668,6917.918,95.438,540.974,538.592,0.0
52364.0,STARLINK-3820,PAYLOAD,2023-11-25 00:28:32,15.08840792,0.0001635,53.2179,340.4994,112.3401,247.7765,1.436e-05,-5.9e-07,0.0,0 STARLINK-3820,1 52364U 22045AK  23329.01981640 -.00000059  00000-0  14360-4 0  9994,2 52364  53.2179 340.4994 0001635 112.3401 247.7765 15.08840792 89761,6917.878,95.438,540.874,538.612,0.0
52364.0,STARLINK-3820,PAYLOAD,2023-11-25 08:25:27,15.0884818,0.000206,53.2181,339.0194,74.793,285.3289,0.000294,4.395e-05,0.0,0 STARLINK-3820,1 52364U 22045AK  23329.35101273  .00004395  00000-0  29400-3 0  9993,2 52364  53.2181 339.0194 0002060  74.7930 285.3289 15.08848180 89815,6917.855,95.437,541.145,538.295,0.0
52364.0,STARLINK-3820,PAYLOAD,2023-11-26 00:19:19,15.08845992,0.0001809,53.2182,336.0424,86.5731,273.5468,0.00035156,5.312e-05,0.0,0 STARLINK-3820,1 52364U 22045AK  23330.01341440  .00005312  00000-0  35156-3 0  9995,2 52364  53.2182 336.0424 0001809  86.5731 273.5468 15.08845992 89916,6917.862,95.437,540.979,538.476,0.0
52364.0,STARLINK-3820,PAYLOAD,2023-11-26 08:16:14,15.08854832,0.0001898,53.2174,334.5564,81.1491,278.9716,0.00043468,6.639e-05,0.0,0 STARLINK-3820,1 52364U 22045AK  23330.34460933  .00006639  00000-0  43468-3 0  9998,2 52364  53.2174 334.5564 0001898  81.1491 278.9716 15.08854832 89960,6917.835,95.437,541.013,538.387,0.0
52364.0,STARLINK-3820,PAYLOAD,2023-11-27 09:42:26,15.08821133,0.0001914,53.2176,329.7971,91.5565,268.5646,-0.00025108,-4.28e-05,0.0,0 STARLINK-3820,1 52364U 22045AK  23331.40446869 -.00004280  00000-0 -25108-3 0  9991,2 52364  53.2176 329.7971 0001914  91.5565 268.5646 15.08821133 90121,6917.938,95.439,541.127,538.479,0.0
52364.0,STARLINK-3820,PAYLOAD,2023-11-28 03:11:40,15.08836443,0.0001912,53.2184,326.5304,72.3213,287.7987,0.00016834,2.392e-05,0.0,0 STARLINK-3820,1 52364U 22045AK  23332.13310703  .00002392  00000-0  16834-3 0  9995,2 52364  53.2184 326.5304 0001912  72.3213 287.7987 15.08836443 90233,6917.891,95.438,541.079,538.434,0.0
52364.0,STARLINK-3820,PAYLOAD,2023-11-28 09:33:12,15.08858551,0.0001988,53.2171,325.3357,109.7626,250.358,0.00060814,9.409e-05,0.0,0 STARLINK-3820,1 52364U 22045AK  23332.39805727  .00009409  00000-0  60814-3 0  9991,2 52364  53.2171 325.3357 0001988 109.7626 250.3580 15.08858551 90273,6917.824,95.436,541.064,538.313,0.0
52364.0,STARLINK-3820,PAYLOAD,2023-11-28 23:51:41,15.08841485,0.0002053,53.2181,322.6498,110.9753,249.1458,0.00037449,5.677e-05,0.0,0 STARLINK-3820,1 52364U 22045AK  23332.99422502  .00005677  00000-0  37449-3 0  9994,2 52364  53.2181 322.6498 0002053 110.9753 249.1458 15.08841485 90367,6917.876,95.437,541.161,538.321,0.0
52364.0,STARLINK-3820,PAYLOAD,2023-11-29 04:37:50,15.08850743,0.0002426,53.2172,321.7608,119.1457,240.9779,0.00048282,7.407e-05,0.0,0 STARLINK-3820,1 52364U 22045AK  23333.19294511  .00007407  00000-0  48282-3 0  9994,2 52364  53.2172 321.7608 0002426 119.1457 240.9779 15.08850743 90391,6917.848,95.437,541.391,538.034,0.0
52364.0,STARLINK-3820,PAYLOAD,2023-11-30 02:53:13,15.08854047,0.0002137,53.2173,317.6074,106.6643,253.4584,7.1078e-05,8.44e-06,0.0,0 STARLINK-3820,1 52364U 22045AK  23334.12029775  .00000844  00000-0  71078-4 0  9994,2 52364  53.2173 317.6074 0002137 106.6643 253.4584 15.08854047 90530,6917.837,95.437,541.181,538.224,0.0
52364.0,STARLINK-3820,PAYLOAD,2023-12-01 04:19:24,15.08840001,0.0002244,53.2186,312.8517,113.5837,246.5391,7.2837e-06,-1.72e-06,0.0,0 STARLINK-3820,1 52364U 22045AK  23335.18014203 -.00000172  00000-0  72837-5 0  9991,2 52364  53.2186 312.8517 0002244 113.5837 246.5391 15.08840001 90695,6917.88,95.438,541.298,538.193,0.0
52364.0,STARLINK-3820,PAYLOAD,2023-12-01 07:30:10,15.08844784,0.0001952,53.2181,312.2521,96.7069,263.4145,0.0001135,1.519e-05,0.0,0 STARLINK-3820,1 52364U 22045AK  23335.31262065  .00001519  00000-0  11350-3 0  9993,2 52364  53.2181 312.2521 0001952  96.7069 263.4145 15.08844784 90713,6917.866,95.437,541.081,538.38,0.0
52364.0,STARLINK-3820,PAYLOAD,2023-12-02 07:20:56,15.08875046,0.0001966,53.2181,307.7904,90.2226,269.8991,0.00073899,0.00011504,0.0,0 STARLINK-3820,1 52364U 22045AK  23336.30620766  .00011504  00000-0  73899-3 0  9990,2 52364  53.2181 307.7904 0001966  90.2226 269.8991 15.08875046 90866,6917.773,95.435,540.998,538.278,0.0
52364.0,STARLINK-3820,PAYLOAD,2023-12-03 04:00:59,15.08822584,0.0001732,53.2177,303.9257,97.0315,263.0874,-0.00028302,-4.787e-05,0.0,0 STARLINK-3820,1 52364U 22045AK  23337.16734971 -.00004787  00000-0 -28302-3 0  9995,2 52364  53.2177 303.9257 0001732  97.0315 263.0874 15.08822584 90994,6917.934,95.439,540.997,538.6,0.0
52364.0,STARLINK-3820,PAYLOAD,2023-12-03 05:36:22,15.08823401,0.0001845,53.218,303.6283,94.3319,265.7884,-0.00023742,-4.063e-05,0.0,0 STARLINK-3820,1 52364U 22045AK  23337.23359096 -.00004063  00000-0 -23742-3 0  9994,2 52364  53.2180 303.6283 0001845  94.3319 265.7884 15.08823401 91005,6917.931,95.439,541.072,538.52,0.0
52364.0,STARLINK-3820,PAYLOAD,2023-12-03 11:57:54,15.08829434,0.0001767,53.2178,302.4386,120.6273,239.4894,-8.7957e-05,-1.687e-05,0.0,0 STARLINK-3820,1 52364U 22045AK  23337.49854870 -.00001687  00000-0 -87957-4 0  9990,2 52364  53.2178 302.4386 0001767 120.6273 239.4894 15.08829434 91043,6917.913,95.438,541.0,538.555,0.0
52364.0,STARLINK-3820,PAYLOAD,2023-12-04 03:51:45,15.08847906,0.0001774,53.2158,299.4678,102.3661,257.7529,0.00051463,7.914e-05,0.0,0 STARLINK-3820,1 52364U 22045AK  23338.16094899  .00007914  00000-0  51463-3 0  9991,2 52364  53.2158 299.4678 0001774 102.3661 257.7529 15.08847906 91149,6917.856,95.437,540.948,538.494,0.0
52364.0,STARLINK-3820,PAYLOAD,2023-12-04 07:02:32,15.08854405,0.0001841,53.216,298.8719,110.2144,249.9047,0.00097415,0.00015256,0.0,0 STARLINK-3820,1 52364U 22045AK  23338.29342899  .00015256  00000-0  97415-3 0  9996,2 52364  53.2160 298.8719 0001841 110.2144 249.9047 15.08854405 91162,6917.836,95.437,540.975,538.428,0.0
52364.0,STARLINK-3820,PAYLOAD,2023-12-04 21:21:00,15.08851449,0.0002134,53.2172,296.1971,110.4039,249.7183,0.0004864,7.464e-05,0.0,0 STARLINK-3820,1 52364U 22045AK  23338.88958942  .00007464  00000-0  48640-3 0  9991,2 52364  53.2172 296.1971 0002134 110.4039 249.7183 15.08851449 91251,6917.845,95.437,541.187,538.234,0.0
